NORAD_CAT_ID,OBJECT_NAME,OBJECT_TYPE,EPOCH,MEAN_MOTION,ECCENTRICITY,INCLINATION,RA_OF_ASC_NODE,ARG_OF_PERICENTER,MEAN_ANOMALY,BSTAR,MEAN_MOTION_DOT,MEAN_MOTION_DDOT,TLE_LINE0,TLE_LINE1,TLE_LINE2,SEMIMAJOR_AXIS,PERIOD,APOGEE,PERIGEE,DECAYED
55271.0,STARLINK-5306,PAYLOAD,2024-08-06 21:10:00,14.9832989,0.0002919,69.9995,66.4656,269.9639,90.1185,2.595e-05,2.17e-06,0.0,0 STARLINK-5306,1 55271U 23010C   24219.88195351  .00000217  00000-0  25950-4 0  9999,2 55271  69.9995  66.4656 0002919 269.9639  90.1185 14.98329890 85625,6950.193,96.107,574.087,570.029,0.0
55271.0,STARLINK-5306,PAYLOAD,2024-08-07 13:11:21,14.98329957,0.0002864,69.9999,64.7821,270.2512,89.8319,4.4593e-05,4.39e-06,0.0,0 STARLINK-5306,1 55271U 23010C   24220.54955257  .00000439  00000-0  44593-4 0  9993,2 55271  69.9999  64.7821 0002864 270.2512  89.8319 14.98329957 86032,6950.193,96.107,574.049,570.067,0.0
55271.0,STARLINK-5306,PAYLOAD,2024-08-07 19:35:53,14.9833046,0.0002863,69.9999,64.1088,270.2635,89.8196,4.6739e-05,4.65e-06,0.0,0 STARLINK-5306,1 55271U 23010C   24220.81659210  .00000465  00000-0  46739-4 0  9996,2 55271  69.9999  64.1088 0002863 270.2635  89.8196 14.98330460 86074,6950.191,96.107,574.046,570.067,0.0
55271.0,STARLINK-5306,PAYLOAD,2024-08-08 21:14:02,14.9833354,0.0002809,70.0003,61.4168,257.2442,102.8403,5.8111e-05,6.01e-06,0.0,0 STARLINK-5306,1 55271U 23010C   24221.88474820  .00000601  00000-0  58111-4 0  9995,2 55271  70.0003  61.4168 0002809 257.2442 102.8403 14.98333540 85925,6950.182,96.107,573.999,570.095,0.0
55271.0,STARLINK-5306,PAYLOAD,2024-08-08 22:50:10,14.98332755,0.0002834,70.0002,61.2482,259.8346,100.2493,4.6703e-05,4.64e-06,0.0,0 STARLINK-5306,1 55271U 23010C   24221.95150903  .00000464  00000-0  46703-4 0  9997,2 55271  70.0002  61.2482 0002834 259.8346 100.2493 14.98332755 86244,6950.184,96.107,574.019,570.08,0.0
55271.0,STARLINK-5306,PAYLOAD,2024-08-09 13:15:23,14.9833199,0.0002865,69.9997,59.7323,270.4822,89.6009,3.158e-05,2.84e-06,0.0,0 STARLINK-5306,1 55271U 23010C   24222.55234993  .00000284  00000-0  31580-4 0  9993,2 55271  69.9997  59.7323 0002865 270.4822  89.6009 14.98331990 86335,6950.187,96.107,574.043,570.061,0.0
55271.0,STARLINK-5306,PAYLOAD,2024-08-09 21:16:03,14.9833289,0.0002943,69.9998,58.8892,268.3033,91.7789,2.9471e-05,2.59e-06,0.0,0 STARLINK-5306,1 55271U 23010C   24222.88614882  .00000259  00000-0  29471-4 0  9996,2 55271  69.9998  58.8892 0002943 268.3033  91.7789 14.98332890 86388,6950.184,96.107,574.094,570.004,0.0
55271.0,STARLINK-5306,PAYLOAD,2024-08-09 22:52:11,14.98334729,0.0002954,69.9998,58.7212,268.9046,91.1774,5.1036e-05,5.16e-06,0.0,0 STARLINK-5306,1 55271U 23010C   24222.95290700  .00000516  00000-0  51036-4 0  9991,2 55271  69.9998  58.7212 0002954 268.9046  91.1774 14.98334729 86083,6950.178,96.107,574.096,569.99,0.0
55271.0,STARLINK-5306,PAYLOAD,2024-08-10 13:17:24,14.98313794,0.0002975,70.0002,57.206,272.1071,87.9748,0.000209,2.401e-05,0.0,0 STARLINK-5306,1 55271U 23010C   24223.55375396  .00002401  00000-0  20900-3 0  9993,2 55271  70.0002  57.2060 0002975 272.1071  87.9748 14.98313794 86178,6950.243,96.108,574.176,570.04,0.0
55271.0,STARLINK-5306,PAYLOAD,2024-08-10 14:53:32,14.98324896,0.0002793,70.0002,57.0377,265.3751,94.7089,6.7019e-06,-1.3e-07,0.0,0 STARLINK-5306,1 55271U 23010C   24223.62051371 -.00000013  00000-0  67019-5 0  9997,2 55271  70.0002  57.0377 0002793 265.3751  94.7089 14.98324896 86498,6950.209,96.107,574.015,570.132,0.0
55271.0,STARLINK-5306,PAYLOAD,2024-08-10 21:18:04,14.98328771,0.0002896,70.0006,56.3668,270.2791,89.8036,0.00011898,1.327e-05,0.0,0 STARLINK-5306,1 55271U 23010C   24223.88754912  .00001327  00000-0  11898-3 0  9996,2 55271  70.0006  56.3668 0002896 270.2791  89.8036 14.98328771 86224,6950.197,96.107,574.074,570.049,0.0
55271.0,STARLINK-5306,PAYLOAD,2024-08-10 22:54:12,14.98333017,0.0002723,70.0007,56.1985,264.9691,95.1158,6.4872e-05,6.81e-06,0.0,0 STARLINK-5306,1 55271U 23010C   24223.95430754  .00000681  00000-0  64872-4 0  9992,2 55271  70.0007  56.1985 0002723 264.9691  95.1158 14.98333017 86542,6950.184,96.107,573.941,570.156,0.0
55271.0,STARLINK-5306,PAYLOAD,2024-08-11 21:20:05,14.98332022,0.0002804,70.0008,53.842,267.5707,92.5131,7.7669e-05,8.34e-06,0.0,0 STARLINK-5306,1 55271U 23010C   24224.88894887  .00000834  00000-0  77669-4 0  9994,2 55271  70.0008  53.8420 0002804 267.5707  92.5131 14.98332022 86376,6950.187,96.107,574.0,570.103,0.0
55271.0,STARLINK-5306,PAYLOAD,2024-08-12 13:21:25,14.9833369,0.0002932,70.0016,52.1579,270.7913,89.291,0.00016561,1.884e-05,0.0,0 STARLINK-5306,1 55271U 23010C   24225.55654440  .00001884  00000-0  16561-3 0  9997,2 55271  70.0016  52.1579 0002932 270.7913  89.2910 14.98333690 86784,6950.181,96.107,574.084,570.009,0.0
55271.0,STARLINK-5306,PAYLOAD,2024-08-12 21:22:05,14.98342369,0.000275,70.0005,51.3162,268.7152,91.3691,0.0002075,2.384e-05,0.0,0 STARLINK-5306,1 55271U 23010C   24225.89033739  .00002384  00000-0  20750-3 0  9997,2 55271  70.0005  51.3162 0002750 268.7152  91.3691 14.98342369 86526,6950.155,96.106,573.931,570.108,0.0
55271.0,STARLINK-5306,PAYLOAD,2024-08-12 22:58:13,14.98343894,0.0002806,70.0002,51.1477,269.1924,90.8914,0.00021734,2.502e-05,0.0,0 STARLINK-5306,1 55271U 23010C   24225.95709598  .00002502  00000-0  21734-3 0  9992,2 55271  70.0002  51.1477 0002806 269.1924  90.8914 14.98343894 86845,6950.15,96.106,573.965,570.065,0.0
55271.0,STARLINK-5306,PAYLOAD,2024-08-13 11:47:20,14.98311795,0.0002914,70.0016,49.8014,269.3331,90.7494,-0.00019668,-2.438e-05,0.0,0 STARLINK-5306,1 55271U 23010C   24226.49120847 -.00002438  00000-0 -19668-3 0  9999,2 55271  70.0016  49.8014 0002914 269.3331  90.7494 14.98311795 86617,6950.249,96.108,574.139,570.089,0.0
55271.0,STARLINK-5306,PAYLOAD,2024-08-13 18:11:53,14.9830073,0.0003692,70.0017,49.1282,271.0322,89.0414,-0.0002971,-3.634e-05,0.0,0 STARLINK-5306,1 55271U 23010C   24226.75826095 -.00003634  00000-0 -29710-3 0  9994,2 55271  70.0017  49.1282 0003692 271.0322  89.0414 14.98300730 86656,6950.283,96.109,574.714,569.582,0.0
55271.0,STARLINK-5306,PAYLOAD,2024-08-14 05:24:49,14.9831697,0.0003357,70.0014,47.9494,262.5767,97.501,-8.6471e-05,-1.124e-05,0.0,0 STARLINK-5306,1 55271U 23010C   24227.22557113 -.00001124  00000-0 -86471-4 0  9999,2 55271  70.0014  47.9494 0003357 262.5767  97.5010 14.98316970 86727,6950.233,96.108,574.431,569.765,0.0
55271.0,STARLINK-5306,PAYLOAD,2024-08-14 13:25:28,14.98332736,0.0002664,70.001,47.1086,263.5312,96.5544,2.9937e-05,2.64e-06,0.0,0 STARLINK-5306,1 55271U 23010C   24227.55936161  .00000264  00000-0  29937-4 0  9995,2 55271  70.0010  47.1086 0002664 263.5312  96.5544 14.98332736 86773,6950.184,96.107,573.901,570.198,0.0
55271.0,STARLINK-5306,PAYLOAD,2024-08-14 21:26:08,14.98338031,0.0003101,69.9996,46.2623,258.3011,101.78,4.8018e-05,4.8e-06,0.0,0 STARLINK-5306,1 55271U 23010C   24227.89315721  .00000480  00000-0  48018-4 0  9996,2 55271  69.9996  46.2623 0003101 258.3011 101.7800 14.98338031 87134,6950.168,96.106,574.188,569.878,0.0
55271.0,STARLINK-5306,PAYLOAD,2024-08-15 05:26:49,14.98340861,0.0002392,70.0002,45.4216,280.9769,79.112,4.1269e-05,4e-06,0.0,0 STARLINK-5306,1 55271U 23010C   24228.22695891  .00000400  00000-0  41269-4 0  9996,2 55271  70.0002  45.4216 0002392 280.9769  79.1120 14.98340861 87188,6950.159,96.106,573.687,570.362,0.0
55271.0,STARLINK-5306,PAYLOAD,2024-08-15 21:28:09,14.98328743,0.0003178,69.9997,43.7397,260.2384,99.8416,0.00059174,6.974e-05,0.0,0 STARLINK-5306,1 55271U 23010C   24228.89455958  .00006974  00000-0  59174-3 0  9992,2 55271  69.9997  43.7397 0003178 260.2384  99.8416 14.98328743 86974,6950.197,96.107,574.271,569.853,0.0
55271.0,STARLINK-5306,PAYLOAD,2024-08-16 21:30:10,14.98348443,0.0003045,69.9999,41.2162,262.1565,97.9248,0.00018917,2.166e-05,0.0,0 STARLINK-5306,1 55271U 23010C   24229.89594968  .00002166  00000-0  18917-3 0  9997,2 55271  69.9999  41.2162 0003045 262.1565  97.9248 14.98348443 87437,6950.136,96.106,574.117,569.885,0.0
55271.0,STARLINK-5306,PAYLOAD,2024-08-17 21:32:11,14.98334312,0.0003127,70.0,38.69,261.1429,98.9376,8.5239e-05,9.24e-06,0.0,0 STARLINK-5306,1 55271U 23010C   24230.89735403  .00000924  00000-0  85239-4 0  9992,2 55271  70.0000  38.6900 0003127 261.1429  98.9376 14.98334312 87581,6950.18,96.107,574.218,569.871,0.0
55271.0,STARLINK-5306,PAYLOAD,2024-08-18 13:33:31,14.98336916,0.000301,70.0014,37.0072,264.6737,95.4079,0.00026829,3.11e-05,0.0,0 STARLINK-5306,1 55271U 23010C   24231.56494443  .00003110  00000-0  26829-3 0  9992,2 55271  70.0014  37.0072 0003010 264.6737  95.4079 14.98336916 87371,6950.172,96.107,574.129,569.945,0.0
55271.0,STARLINK-5306,PAYLOAD,2024-08-18 21:34:11,14.98341433,0.0002929,70.0016,36.1656,265.3925,94.69,0.00033313,3.885e-05,0.0,0 STARLINK-5306,1 55271U 23010C   24231.89874184  .00003885  00000-0  33313-3 0  9997,2 55271  70.0016  36.1656 0002929 265.3925  94.6900 14.98341433 87730,6950.158,96.106,574.058,569.987,0.0
55271.0,STARLINK-5306,PAYLOAD,2024-08-19 03:58:43,14.98331758,0.0002622,70.0043,35.4901,265.0766,95.0094,0.00010834,1.2e-05,0.0,0 STARLINK-5306,1 55271U 23010C   24232.16578635  .00001200  00000-0  10834-3 0  9992,2 55271  70.0043  35.4901 0002622 265.0766  95.0094 14.98331758 87463,6950.187,96.107,573.875,570.23,0.0
55271.0,STARLINK-5306,PAYLOAD,2024-08-20 04:00:45,14.98323325,0.0002438,70.004,32.9666,267.4374,92.6506,0.0003143,3.659e-05,0.0,0 STARLINK-5306,1 55271U 23010C   24233.16719380  .00003659  00000-0  31430-3 0  9992,2 55271  70.0040  32.9666 0002438 267.4374  92.6506 14.98323325 87615,6950.214,96.107,573.773,570.384,0.0
55271.0,STARLINK-5306,PAYLOAD,2024-08-20 13:37:32,14.98335295,0.0003061,70.0018,31.9571,267.7499,92.3309,3.4827e-05,3.23e-06,0.0,0 STARLINK-5306,1 55271U 23010C   24233.56774300  .00000323  00000-0  34827-4 0  9998,2 55271  70.0018  31.9571 0003061 267.7499  92.3309 14.98335295 87671,6950.177,96.107,574.169,569.914,0.0
